[{"OBJECT_NAME":"STARLINK-3372","OBJECT_ID":"2022-005K","EPOCH":"2026-03-09T19:41:30.469920","MEAN_MOTION":15.08825229,"ECCENTRICITY":0.00014832,"INCLINATION":53.218,"RA_OF_ASC_NODE":288.5375,"ARG_OF_PERICENTER":95.1079,"MEAN_ANOMALY":265.0082,"EPHEMERIS_TYPE":0,"CLASSIFICATION_TYPE":"U","NORAD_CAT_ID":51113,"ELEMENT_SET_NO":999,"REV_AT_EPOCH":22889,"BSTAR":0.00014903946,"MEAN_MOTION_DOT":2.084e-5,"MEAN_MOTION_DDOT":0},{"OBJECT_NAME":"USA 22","OBJECT_ID":"1987-043A","EPOCH":"2026-03-09T12:49:38.770464","MEAN_MOTION":14.09930808,"ECCENTRICITY":0.06945592,"INCLINATION":63.291,"RA_OF_ASC_NODE":125.356,"ARG_OF_PERICENTER":106.1549,"MEAN_ANOMALY":261.7059,"EPHEMERIS_TYPE":0,"CLASSIFICATION_TYPE":"U","NORAD_CAT_ID":17997,"ELEMENT_SET_NO":999,"REV_AT_EPOCH":9242,"BSTAR":0.00062215279,"MEAN_MOTION_DOT":0.00012639,"MEAN_MOTION_DDOT":0}]
